{
  "norad_id": 61900,
  "name": "2024-205G",
  "history": [
    {
      "epoch": "2026-03-28T22:05:27.763008",
      "apogee_km": 551.6469983961779,
      "perigee_km": 522.5401014884146,
      "latitude_deg": 72.1385335955537,
      "longitude_deg": 98.36418112018146,
      "semi_major_axis_km": 6915.2305499422955,
      "eccentricity": 0.00210455,
      "inclination_deg": 97.4184,
      "raan_deg": 160.3181,
      "arg_perigee_deg": 69.3689,
      "mean_anomaly_deg": 290.9794,
      "mean_motion_rev_day": 15.09707339
    },
    {
      "epoch": "2026-03-29T04:27:14.048064",
      "apogee_km": 551.6209425194238,
      "perigee_km": 522.5327869188695,
      "latitude_deg": -72.77307904639888,
      "longitude_deg": 123.81560895987786,
      "semi_major_axis_km": 6915.213864719146,
      "eccentricity": 0.0021032,
      "inclination_deg": 97.4183,
      "raan_deg": 160.5747,
      "arg_perigee_deg": 68.5373,
      "mean_anomaly_deg": 291.8097,
      "mean_motion_rev_day": 15.09712803
    }
  ]
}